{"type": "FeatureCollection", "features": [ {"type": "Feature", "properties": {"norad_id": 66623, "name": "STARLINK-35920", "group": "last-30-days", "lat": -49.381262607499956, "lon": 148.49990218293635, "alt_km": 364.702270141197, "timestamp": "2025-12-08T03:50:05.784726+00:00", "meta": {"OBJECT_NAME": "STARLINK-35920", "OBJECT_ID": "2025-271G", "EPOCH": "2025-12-07T06:00:04.999968", "MEAN_MOTION": 15.73594375, "ECCENTRICITY": 0.00011199, "INCLINATION": 53.158, "RA_OF_ASC_NODE": 213.9502, "ARG_OF_PERICENTER": 117.9166, "MEAN_ANOMALY": 60.2061, "EPHEMERIS_TYPE": 0, "CLASSIFICATION_TYPE": "U", "NORAD_CAT_ID": 66623, "ELEMENT_SET_NO": 999, "REV_AT_EPOCH": 336, "BSTAR": -0.015428547, "MEAN_MOTION_DOT": -0.01912743, "MEAN_MOTION_DDOT": 0}, "tle": {"line1": "1 66623U 25271G   25341.25005787 -.01912743  00000+0 -15429-1 0  9999", "line2": "2 66623  53.1580 213.9502 0001119 117.9166  60.2061 15.73594375  3368"}}, "geometry": {"type": "Point", "coordinates": [148.49990218293635, -49.381262607499956]}}, {"type": "Feature", "properties": {"norad_id": 66624, "name": "STARLINK-35927", "group": "last-30-days", "lat": -50.09717067482722, "lon": 145.73663006489164, "alt_km": 364.4162028476567, "timestamp": "2025-12-08T03:50:05.784738+00:00", "meta": {"OBJECT_NAME": "STARLINK-35927", "OBJECT_ID": "2025-271H", "EPOCH": "2025-12-07T06:00:04.999968", "MEAN_MOTION": 15.73614626, "ECCENTRICITY": 9.02e-05, "INCLINATION": 53.1583, "RA_OF_ASC_NODE": 213.9542, "ARG_OF_PERICENTER": 69.1461, "MEAN_ANOMALY": 107.0432, "EPHEMERIS_TYPE": 0, "CLASSIFICATION_TYPE": "U", "NORAD_CAT_ID": 66624, "ELEMENT_SET_NO": 999, "REV_AT_EPOCH": 336, "BSTAR": -0.015561405, "MEAN_MOTION_DOT": -0.01928218, "MEAN_MOTION_DDOT": 0}, "tle": {"line1": "1 66624U 25271H   25341.25005787 -.01928218  00000+0 -15561-1 0  9991", "line2": "2 66624  53.1583 213.9542 0000902  69.1461 107.0432 15.73614626  3365"}}, "geometry": {"type": "Point", "coordinates": [145.73663006489164, -50.09717067482722]}}, {"type": "Feature", "properties": {"norad_id": 66625, "name": "STARLINK-35929", "group": "last-30-days", "lat": -48.615272409984975, "lon": 151.13610756192273, "alt_km": 364.6932931002302, "timestamp": "2025-12-08T03:50:05.784748+00:00", "meta": {"OBJECT_NAME": "STARLINK-35929", "OBJECT_ID": "2025-271J", "EPOCH": "2025-12-07T06:00:04.999968", "MEAN_MOTION": 15.73595328, "ECCENTRICITY": 0.00011399, "INCLINATION": 53.1582, "RA_OF_ASC_NODE": 213.946, "ARG_OF_PERICENTER": 94.1428, "MEAN_ANOMALY": 85.9067, "EPHEMERIS_TYPE": 0, "CLASSIFICATION_TYPE": "U", "NORAD_CAT_ID": 66625, "ELEMENT_SET_NO": 999, "REV_AT_EPOCH": 336, "BSTAR": -0.015504238, "MEAN_MOTION_DOT": -0.01920925, "MEAN_MOTION_DDOT": 0}, "tle": {"line1": "1 66625U 25271J   25341.25005787 -.01920925  00000+0 -15504-1 0  9996", "line2": "2 66625  53.1582 213.9460 0001139  94.1428  85.9067 15.73595328  3363"}}, "geometry": {"type": "Point", "coordinates": [151.13610756192273, -48.615272409984975]}}, {"type": "Feature", "properties": {"norad_id": 66626, "name": "STARLINK-35902", "group": "last-30-days", "lat": -47.77083522689555, "lon": 153.7472245477145, "alt_km": 364.3582514571726, "timestamp": "2025-12-08T03:50:05.784758+00:00", "meta": {"OBJECT_NAME": "STARLINK-35902", "OBJECT_ID": "2025-271K", "EPOCH": "2025-12-07T06:00:04.999968", "MEAN_MOTION": 15.73586588, "ECCENTRICITY": 8.987e-05, "INCLINATION": 53.1579, "RA_OF_ASC_NODE": 213.9415, "ARG_OF_PERICENTER": 86.1224, "MEAN_ANOMALY": 95.846, "EPHEMERIS_TYPE": 0, "CLASSIFICATION_TYPE": "U", "NORAD_CAT_ID": 66626, "ELEMENT_SET_NO": 999, "REV_AT_EPOCH": 336, "BSTAR": -0.015373411, "MEAN_MOTION_DOT": -0.01906089, "MEAN_MOTION_DDOT": 0}, "tle": {"line1": "1 66626U 25271K   25341.25005787 -.01906089  00000+0 -15373-1 0  9996", "line2": "2 66626  53.1579 213.9415 0000898  86.1224  95.8460 15.73586588  3361"}}, "geometry": {"type": "Point", "coordinates": [153.7472245477145, -47.77083522689555]}}, {"type": "Feature", "properties": {"norad_id": 66627, "name": "STARLINK-35904", "group": "last-30-days", "lat": -46.86659718063749, "lon": 156.27878648963346, "alt_km": 364.06470767547125, "timestamp": "2025-12-08T03:50:05.784770+00:00", "meta": {"OBJECT_NAME": "STARLINK-35904", "OBJECT_ID": "2025-271L", "EPOCH": "2025-12-07T06:00:04.999968", "MEAN_MOTION": 15.73558945, "ECCENTRICITY": 8.287e-05, "INCLINATION": 53.1577, "RA_OF_ASC_NODE": 213.9373, "ARG_OF_PERICENTER": 65.1195, "MEAN_ANOMALY": 118.783, "EPHEMERIS_TYPE": 0, "CLASSIFICATION_TYPE": "U", "NORAD_CAT_ID": 66627, "ELEMENT_SET_NO": 999, "REV_AT_EPOCH": 320, "BSTAR": -0.015118904, "MEAN_MOTION_DOT": -0.01876742, "MEAN_MOTION_DDOT": 0}, "tle": {"line1": "1 66627U 25271L   25341.25005787 -.01876742  00000+0 -15119-1 0  9997", "line2": "2 66627  53.1577 213.9373 0000828  65.1195 118.7830 15.73558945  3205"}}, "geometry": {"type": "Point", "coordinates": [156.27878648963346, -46.86659718063749]}}, {"type": "Feature", "properties": {"norad_id": 66628, "name": "STARLINK-35862", "group": "last-30-days", "lat": -45.94593930711284, "lon": 158.63288370745468, "alt_km": 364.18543185780436, "timestamp": "2025-12-08T03:50:05.784780+00:00", "meta": {"OBJECT_NAME": "STARLINK-35862", "OBJECT_ID": "2025-271M", "EPOCH": "2025-12-07T06:00:04.999968", "MEAN_MOTION": 15.73604308, "ECCENTRICITY": 9.034e-05, "INCLINATION": 53.1578, "RA_OF_ASC_NODE": 213.9335, "ARG_OF_PERICENTER": 64.2046, "MEAN_ANOMALY": 121.5804, "EPHEMERIS_TYPE": 0, "CLASSIFICATION_TYPE": "U", "NORAD_CAT_ID": 66628, "ELEMENT_SET_NO": 999, "REV_AT_EPOCH": 336, "BSTAR": -0.015504355, "MEAN_MOTION_DOT": -0.01921379, "MEAN_MOTION_DDOT": 0}, "tle": {"line1": "1 66628U 25271M   25341.25005787 -.01921379  00000+0 -15504-1 0  9993", "line2": "2 66628  53.1578 213.9335 0000903  64.2046 121.5804 15.73604308  3369"}}, "geometry": {"type": "Point", "coordinates": [158.63288370745468, -45.94593930711284]}}, {"type": "Feature", "properties": {"norad_id": 66629, "name": "STARLINK-35956", "group": "last-30-days", "lat": -44.950663275801475, "lon": 160.9710480679927, "alt_km": 364.4020379446956, "timestamp": "2025-12-08T03:50:05.784790+00:00", "meta": {"OBJECT_NAME": "STARLINK-35956", "OBJECT_ID": "2025-271N", "EPOCH": "2025-12-07T06:00:04.999968", "MEAN_MOTION": 15.73601072, "ECCENTRICITY": 0.00010361, "INCLINATION": 53.1579, "RA_OF_ASC_NODE": 213.9301, "ARG_OF_PERICENTER": 84.4207, "MEAN_ANOMALY": 103.285, "EPHEMERIS_TYPE": 0, "CLASSIFICATION_TYPE": "U", "NORAD_CAT_ID": 66629, "ELEMENT_SET_NO": 999, "REV_AT_EPOCH": 336, "BSTAR": -0.015476905, "MEAN_MOTION_DOT": -0.01918326, "MEAN_MOTION_DDOT": 0}, "tle": {"line1": "1 66629U 25271N   25341.25005787 -.01918326  00000+0 -15477-1 0  9991", "line2": "2 66629  53.1579 213.9301 0001036  84.4207 103.2850 15.73601072  3368"}}, "geometry": {"type": "Point", "coordinates": [160.9710480679927, -44.950663275801475]}}, {"type": "Feature", "properties": {"norad_id": 66630, "name": "STARLINK-35949", "group": "last-30-days", "lat": -43.9088279733125, "lon": 163.2269223317243, "alt_km": 364.34944957611424, "timestamp": "2025-12-08T03:50:05.784801+00:00", "meta": {"OBJECT_NAME": "STARLINK-35949", "OBJECT_ID": "2025-271P", "EPOCH": "2025-12-07T06:00:04.999968", "MEAN_MOTION": 15.73597067, "ECCENTRICITY": 0.00010074, "INCLINATION": 53.158, "RA_OF_ASC_NODE": 213.9253, "ARG_OF_PERICENTER": 98.7642, "MEAN_ANOMALY": 90.857, "EPHEMERIS_TYPE": 0, "CLASSIFICATION_TYPE": "U", "NORAD_CAT_ID": 66630, "ELEMENT_SET_NO": 999, "REV_AT_EPOCH": 336, "BSTAR": -0.015425305, "MEAN_MOTION_DOT": -0.01912492, "MEAN_MOTION_DDOT": 0}, "tle": {"line1": "1 66630U 25271P   25341.25005787 -.01912492  00000+0 -15425-1 0  9994", "line2": "2 66630  53.1580 213.9253 0001007  98.7642  90.8570 15.73597067  3365"}}, "geometry": {"type": "Point", "coordinates": [163.2269223317243, -43.9088279733125]}}, {"type": "Feature", "properties": {"norad_id": 66631, "name": "STARLINK-35965", "group": "last-30-days", "lat": -42.84113667630121, "lon": 165.37153906080715, "alt_km": 364.2768264794804, "timestamp": "2025-12-08T03:50:05.784813+00:00", "meta": {"OBJECT_NAME": "STARLINK-35965", "OBJECT_ID": "2025-271Q", "EPOCH": "2025-12-07T06:00:04.999968", "MEAN_MOTION": 15.73603366, "ECCENTRICITY": 0.00011067, "INCLINATION": 53.1581, "RA_OF_ASC_NODE": 213.9218, "ARG_OF_PERICENTER": 64.7333, "MEAN_ANOMALY": 126.8054, "EPHEMERIS_TYPE": 0, "CLASSIFICATION_TYPE": "U", "NORAD_CAT_ID": 66631, "ELEMENT_SET_NO": 999, "REV_AT_EPOCH": 336, "BSTAR": -0.015523433, "MEAN_MOTION_DOT": -0.01923528, "MEAN_MOTION_DDOT": 0}, "tle": {"line1": "1 66631U 25271Q   25341.25005787 -.01923528  00000+0 -15523-1 0  9996", "line2": "2 66631  53.1581 213.9218 0001106  64.7333 126.8054 15.73603366  3365"}}, "geometry": {"type": "Point", "coordinates": [165.37153906080715, -42.84113667630121]}}, {"type": "Feature", "properties": {"norad_id": 66632, "name": "STARLINK-35973", "group": "last-30-days", "lat": -41.71878162142113, "lon": 167.46898675675814, "alt_km": 363.9836691788987, "timestamp": "2025-12-08T03:50:05.784823+00:00", "meta": {"OBJECT_NAME": "STARLINK-35973", "OBJECT_ID": "2025-271R", "EPOCH": "2025-12-07T06:00:04.999968", "MEAN_MOTION": 15.73608143, "ECCENTRICITY": 8.988e-05, "INCLINATION": 53.1578, "RA_OF_ASC_NODE": 213.9175, "ARG_OF_PERICENTER": 64.4521, "MEAN_ANOMALY": 128.9971, "EPHEMERIS_TYPE": 0, "CLASSIFICATION_TYPE": "U", "NORAD_CAT_ID": 66632, "ELEMENT_SET_NO": 999, "REV_AT_EPOCH": 330, "BSTAR": -0.015534724, "MEAN_MOTION_DOT": -0.01924897, "MEAN_MOTION_DDOT": 0}, "tle": {"line1": "1 66632U 25271R   25341.25005787 -.01924897  00000+0 -15535-1 0  9990", "line2": "2 66632  53.1578 213.9175 0000898  64.4521 128.9971 15.73608143  3300"}}, "geometry": {"type": "Point", "coordinates": [167.46898675675814, -41.71878162142113]}}]}